NORAD_CAT_ID,OBJECT_NAME,OBJECT_TYPE,EPOCH,MEAN_MOTION,ECCENTRICITY,INCLINATION,RA_OF_ASC_NODE,ARG_OF_PERICENTER,MEAN_ANOMALY,BSTAR,MEAN_MOTION_DOT,MEAN_MOTION_DDOT,TLE_LINE0,TLE_LINE1,TLE_LINE2,SEMIMAJOR_AXIS,PERIOD,APOGEE,PERIGEE,DECAYED
54003.0,STARLINK-5114,PAYLOAD,2023-10-10 05:19:13,15.08847971,0.0001608,53.2174,210.9815,102.5278,257.5894,0.00048296,7.408e-05,0.0,0 STARLINK-5114,1 54003U 22125AR  23283.22168869  .00007408  00000-0  48296-3 0  9995,2 54003  53.2174 210.9815 0001608 102.5278 257.5894 15.08847971 56395,6917.856,95.437,540.833,538.609,0.0
54003.0,STARLINK-5114,PAYLOAD,2023-10-10 19:37:42,15.08828384,0.0001447,53.2168,208.3062,105.5282,254.5869,0.00052954,8.147e-05,0.0,0 STARLINK-5114,1 54003U 22125AR  23283.81785578  .00008147  00000-0  52954-3 0  9999,2 54003  53.2168 208.3062 0001447 105.5282 254.5869 15.08828384 56488,6917.916,95.438,540.782,538.78,0.0
54003.0,STARLINK-5114,PAYLOAD,2023-10-11 00:23:52,15.08844227,0.0001737,53.2168,207.4143,111.8161,248.3016,0.0013878,0.0002187,0.0,0 STARLINK-5114,1 54003U 22125AR  23284.01657558  .00021870  00000-0  13878-2 0  9997,2 54003  53.2168 207.4143 0001737 111.8161 248.3016 15.08844227 56564,6917.867,95.437,540.934,538.531,0.0
54003.0,STARLINK-5114,PAYLOAD,2023-10-11 05:10:01,15.08862303,0.0001333,53.2172,206.5235,102.4952,257.619,0.0018047,0.00028568,0.0,0 STARLINK-5114,1 54003U 22125AR  23284.21529236  .00028568  00000-0  18047-2 0  9994,2 54003  53.2172 206.5235 0001333 102.4952 257.6190 15.08862303 56546,6917.812,95.436,540.599,538.755,0.0
54003.0,STARLINK-5114,PAYLOAD,2023-10-11 17:53:06,15.08839484,0.0001518,53.2177,204.1424,108.6762,251.4395,0.00085506,0.00013346,0.0,0 STARLINK-5114,1 54003U 22125AR  23284.74521743  .00013346  00000-0  85506-3 0  9990,2 54003  53.2177 204.1424 0001518 108.6762 251.4395 15.08839484 56674,6917.882,95.438,540.797,538.697,0.0
54003.0,STARLINK-5114,PAYLOAD,2023-10-12 11:22:21,15.08844467,0.0001339,53.2175,200.874,87.919,272.1956,0.00057525,8.88e-05,0.0,0 STARLINK-5114,1 54003U 22125AR  23285.47385608  .00008880  00000-0  57525-3 0  9996,2 54003  53.2175 200.8740 0001339  87.9190 272.1956 15.08844467 56738,6917.867,95.437,540.658,538.805,0.0
54003.0,STARLINK-5114,PAYLOAD,2023-10-12 22:30:03,15.08841043,0.0001598,53.2173,198.793,92.3902,267.7273,0.00020587,2.99e-05,0.0,0 STARLINK-5114,1 54003U 22125AR  23285.93753737  .00002990  00000-0  20587-3 0  9993,2 54003  53.2173 198.7930 0001598  92.3902 267.7273 15.08841043 56807,6917.877,95.437,540.848,538.637,0.0
54003.0,STARLINK-5114,PAYLOAD,2023-10-13 01:40:49,15.08847357,0.0001785,53.218,198.1991,87.8548,272.2648,0.00028012,4.174e-05,0.0,0 STARLINK-5114,1 54003U 22125AR  23286.07001645  .00004174  00000-0  28012-3 0  9990,2 54003  53.2180 198.1991 0001785  87.8548 272.2648 15.08847357 56877,6917.858,95.437,540.958,538.488,0.0
54003.0,STARLINK-5114,PAYLOAD,2023-10-13 11:13:08,15.08846519,0.0001429,53.2169,196.4138,97.1925,262.923,0.00028714,4.286e-05,0.0,0 STARLINK-5114,1 54003U 22125AR  23286.46745409  .00004286  00000-0  28714-3 0  9999,2 54003  53.2169 196.4138 0001429  97.1925 262.9230 15.08846519 56889,6917.86,95.437,540.714,538.737,0.0
54003.0,STARLINK-5114,PAYLOAD,2023-10-13 22:20:49,15.08846132,0.0001287,53.2167,194.3328,97.0858,263.0281,0.00017591,2.513e-05,0.0,0 STARLINK-5114,1 54003U 22125AR  23286.93113343  .00002513  00000-0  17591-3 0  9999,2 54003  53.2167 194.3328 0001287  97.0858 263.0281 15.08846132 56958,6917.862,95.437,540.617,538.836,0.0
54003.0,STARLINK-5114,PAYLOAD,2023-10-14 03:06:58,15.08861302,0.0001705,53.2156,193.4372,92.8766,267.2422,0.00051178,7.871e-05,0.0,0 STARLINK-5114,1 54003U 22125AR  23287.12984813  .00007871  00000-0  51178-3 0  9990,2 54003  53.2156 193.4372 0001705  92.8766 267.2422 15.08861302 57030,6917.815,95.436,540.86,538.501,0.0
54003.0,STARLINK-5114,PAYLOAD,2023-10-14 11:03:55,15.08835283,0.0001844,53.2174,191.954,79.734,280.386,-0.00010466,-1.953e-05,0.0,0 STARLINK-5114,1 54003U 22125AR  23287.46105706 -.00001953  00000-0 -10466-3 0  9995,2 54003  53.2174 191.9540 0001844  79.7340 280.3860 15.08835283 57037,6917.895,95.438,541.035,538.484,0.0
54003.0,STARLINK-5114,PAYLOAD,2023-10-14 22:11:37,15.08826759,0.0001298,53.2167,189.8742,80.9427,279.1712,-0.00016985,-2.989e-05,0.0,0 STARLINK-5114,1 54003U 22125AR  23287.92474248 -.00002989  00000-0 -16985-3 0  9998,2 54003  53.2167 189.8742 0001298  80.9427 279.1712 15.08826759 57100,6917.921,95.438,540.684,538.888,0.0
54003.0,STARLINK-5114,PAYLOAD,2023-10-15 10:54:43,15.0883,0.0001478,53.2171,187.4918,81.4771,278.6388,3.4408e-05,2.6e-06,0.0,0 STARLINK-5114,1 54003U 22125AR  23288.45466450  .00000260  00000-0  34408-4 0  9992,2 54003  53.2171 187.4918 0001478  81.4771 278.6388 15.08830000 57187,6917.911,95.438,540.798,538.753,0.0
54003.0,STARLINK-5114,PAYLOAD,2023-10-15 22:02:25,15.08835333,0.0001354,53.2172,185.4108,80.2858,279.8287,0.00016395,2.322e-05,0.0,0 STARLINK-5114,1 54003U 22125AR  23288.91834593  .00002322  00000-0  16395-3 0  9995,2 54003  53.2172 185.4108 0001354  80.2858 279.8287 15.08835333 57256,6917.895,95.438,540.696,538.823,0.0
54003.0,STARLINK-5114,PAYLOAD,2023-10-16 02:48:34,15.0884794,0.0001453,53.2169,184.5184,85.7896,274.3262,0.00032038,4.816e-05,0.0,0 STARLINK-5114,1 54003U 22125AR  23289.11706201  .00004816  00000-0  32038-3 0  9994,2 54003  53.2169 184.5184 0001453  85.7896 274.3262 15.08847940 57337,6917.856,95.437,540.726,538.716,0.0
54003.0,STARLINK-5114,PAYLOAD,2023-10-16 10:45:30,15.08841399,0.0001498,53.2171,183.0337,86.6165,273.4998,0.00023713,3.488e-05,0.0,0 STARLINK-5114,1 54003U 22125AR  23289.44826521  .00003488  00000-0  23713-3 0  9992,2 54003  53.2171 183.0337 0001498  86.6165 273.4998 15.08841399 57385,6917.876,95.437,540.777,538.705,0.0
54003.0,STARLINK-5114,PAYLOAD,2023-10-16 20:17:48,15.08840393,8.37e-05,53.2188,181.2491,81.4473,278.6614,0.0003743,5.674e-05,0.0,0 STARLINK-5114,1 54003U 22125AR  23289.84570400  .00005674  00000-0  37430-3 0  9998,2 54003  53.2188 181.2491 0000837  81.4473 278.6614 15.08840393 57391,6917.879,95.438,540.323,539.165,0.0
54003.0,STARLINK-5114,PAYLOAD,2023-10-17 23:19:21,15.08842982,0.0001229,53.218,176.1937,86.5658,273.5474,0.00011755,1.584e-05,0.0,0 STARLINK-5114,1 54003U 22125AR  23290.97178085  .00001584  00000-0  11755-3 0  9995,2 54003  53.2180 176.1937 0001229  86.5658 273.5474 15.08842982 57617,6917.871,95.437,540.586,538.886,0.0
54003.0,STARLINK-5114,PAYLOAD,2023-10-18 19:59:23,15.0883811,0.0002671,53.2143,172.327,77.0533,283.0757,-3.2947e-05,-8.13e-06,0.0,0 STARLINK-5114,1 54003U 22125AR  23291.83290720 -.00000813  00000-0 -32947-4 0  9995,2 54003  53.2143 172.3270 0002671  77.0533 283.0757 15.08838110 57699,6917.886,95.438,541.599,537.903,0.0
54003.0,STARLINK-5114,PAYLOAD,2023-10-19 23:00:55,15.08854067,0.0001413,53.2166,167.2741,59.6955,300.4177,0.00020716,3.012e-05,0.0,0 STARLINK-5114,1 54003U 22125AR  23292.95897090  .00003012  00000-0  20716-3 0  9994,2 54003  53.2166 167.2741 0001413  59.6955 300.4177 15.08854067 57865,6917.837,95.437,540.68,538.725,0.0
54003.0,STARLINK-5114,PAYLOAD,2023-10-20 02:11:41,15.08859498,0.0001477,53.2146,166.6782,94.9974,265.1187,0.00031761,4.773e-05,0.0,0 STARLINK-5114,1 54003U 22125AR  23293.09144856  .00004773  00000-0  31761-3 0  9992,2 54003  53.2146 166.6782 0001477  94.9974 265.1187 15.08859498 57933,6917.821,95.436,540.708,538.664,0.0
54003.0,STARLINK-5114,PAYLOAD,2023-10-20 18:05:34,15.08826848,0.0001497,53.2158,163.7036,86.7731,273.3432,-0.00018823,-3.281e-05,0.0,0 STARLINK-5114,1 54003U 22125AR  23293.75386736 -.00003281  00000-0 -18823-3 0  9999,2 54003  53.2158 163.7036 0001497  86.7731 273.3432 15.08826848 58037,6917.921,95.438,540.821,538.75,0.0
54003.0,STARLINK-5114,PAYLOAD,2023-10-20 21:16:20,15.0882806,0.0001399,53.2157,163.1083,95.6256,264.4896,-0.00023671,-4.052e-05,0.0,0 STARLINK-5114,1 54003U 22125AR  23293.88634450 -.00004052  00000-0 -23671-3 0  9996,2 54003  53.2157 163.1083 0001399  95.6256 264.4896 15.08828060 58004,6917.917,95.438,540.75,538.814,0.0
54003.0,STARLINK-5114,PAYLOAD,2023-10-21 08:24:01,15.08851225,0.0001416,53.2162,161.0271,91.8632,268.2522,-0.0003119,-5.25e-05,0.0,0 STARLINK-5114,1 54003U 22125AR  23294.35002043 -.00005250  00000-0 -31190-3 0  9992,2 54003  53.2162 161.0271 0001416  91.8632 268.2522 15.08851225 58122,6917.846,95.437,540.691,538.732,0.0
54003.0,STARLINK-5114,PAYLOAD,2023-10-21 19:31:45,15.0882262,0.000187,53.2165,158.9441,83.5285,276.592,0.0022765,0.00036111,0.0,0 STARLINK-5114,1 54003U 22125AR  23294.81372001  .00036111  00000-0  22765-2 0  9992,2 54003  53.2165 158.9441 0001870  83.5285 276.5920 15.08822620 58193,6917.934,95.439,541.092,538.505,0.0
54003.0,STARLINK-5114,PAYLOAD,2023-10-21 22:42:30,15.08861651,0.0001385,53.2159,158.3508,89.7916,270.3235,0.0010618,0.00016661,0.0,0 STARLINK-5114,1 54003U 22125AR  23294.94618129  .00016661  00000-0  10618-2 0  9992,2 54003  53.2159 158.3508 0001385  89.7916 270.3235 15.08861651 58169,6917.814,95.436,540.637,538.721,0.0
54003.0,STARLINK-5114,PAYLOAD,2023-10-22 08:14:49,15.08844553,0.000185,53.2163,156.5632,78.9213,281.1987,-4.566e-05,-1.015e-05,0.0,0 STARLINK-5114,1 54003U 22125AR  23295.34362412 -.00001015  00000-0 -45660-4 0  9994,2 54003  53.2163 156.5632 0001850  78.9213 281.1987 15.08844553 58277,6917.866,95.437,541.011,538.452,0.0
54003.0,STARLINK-5114,PAYLOAD,2023-10-22 19:22:31,15.08825561,0.0001442,53.2157,154.4855,81.1311,278.9844,-0.00025739,-4.38e-05,0.0,0 STARLINK-5114,1 54003U 22125AR  23295.80731000 -.00004380  00000-0 -25739-3 0  9990,2 54003  53.2157 154.4855 0001442  81.1311 278.9844 15.08825561 58348,6917.925,95.438,540.787,538.792,0.0
54003.0,STARLINK-5114,PAYLOAD,2023-10-22 20:57:54,15.08833541,0.0001407,53.2158,154.188,79.907,280.2081,0.00022912,3.36e-05,0.0,0 STARLINK-5114,1 54003U 22125AR  23295.87354953  .00003360  00000-0  22912-3 0  9990,2 54003  53.2158 154.1880 0001407  79.9070 280.2081 15.08833541 58304,6917.9,95.438,540.738,538.792,0.0
